O3B MPOWER F1           
1 54755U 22174A   24164.06397328 -.00000025  00000+0  00000+0 0  9993
2 54755   0.0621 355.7772 0006849  86.6497 132.7526  5.00114402 28586
